[{"OBJECT_NAME":"GEOSCAN 5 (RS92S5)","OBJECT_ID":"2025-155R","EPOCH":"2026-03-09T22:01:07.273920","MEAN_MOTION":15.30265233,"ECCENTRICITY":0.00070849,"INCLINATION":97.4462,"RA_OF_ASC_NODE":37.7456,"ARG_OF_PERICENTER":154.5846,"MEAN_ANOMALY":205.5745,"EPHEMERIS_TYPE":0,"CLASSIFICATION_TYPE":"U","NORAD_CAT_ID":64891,"ELEMENT_SET_NO":999,"REV_AT_EPOCH":6562,"BSTAR":0.00068639307,"MEAN_MOTION_DOT":0.00020065,"MEAN_MOTION_DDOT":0},{"OBJECT_NAME":"STARLINK-36468","OBJECT_ID":"2026-005M","EPOCH":"2026-03-09T12:00:43.062624","MEAN_MOTION":15.27593567,"ECCENTRICITY":0.00017938,"INCLINATION":42.9967,"RA_OF_ASC_NODE":239.3847,"ARG_OF_PERICENTER":290.0417,"MEAN_ANOMALY":70.0242,"EPHEMERIS_TYPE":0,"CLASSIFICATION_TYPE":"U","NORAD_CAT_ID":67415,"ELEMENT_SET_NO":999,"REV_AT_EPOCH":866,"BSTAR":0.0014118548,"MEAN_MOTION_DOT":0.00038811,"MEAN_MOTION_DDOT":0}]
